[
    {
        "Altitude(m)": 554242.2072088561,
        "Argument of Periapsis(deg)": 0.0,
        "Eccentricity": 0.0,
        "Inclination(deg)": 53.0,
        "Latitude(deg)": -0.07942003251077838,
        "Longitude(deg)": -120.02873371774194,
        "Mean Anomaly(deg)": 0.0,
        "RAAN(deg)": 340.00000000000006,
        "Satellite Name": "Starlink Shell 1 1496",
        "Satellite Number": 1496,
        "Semi-Major Axis(m)": 6931778.249405717,
        "Time(s)": 0
    },
    {
        "Altitude(m)": 554177.7909083441,
        "Argument of Periapsis(deg)": 0.00034857847951123687,
        "Eccentricity": 0.0,
        "Inclination(deg)": 53.0,
        "Latitude(deg)": 0.42452244462660726,
        "Longitude(deg)": -119.69335631040374,
        "Mean Anomaly(deg)": 0.6268312035567466,
        "RAAN(deg)": 339.99948122992254,
        "Satellite Name": "Starlink Shell 1 1496",
        "Satellite Number": 1496,
        "Semi-Major Axis(m)": 6931778.249405717,
        "Time(s)": 10
    },
    {
        "Altitude(m)": 554116.1787076861,
        "Argument of Periapsis(deg)": 0.0006971569590224737,
        "Eccentricity": 0.0,
        "Inclination(deg)": 53.0,
        "Latitude(deg)": 0.9284551985367077,
        "Longitude(deg)": -119.35792317389854,
        "Mean Anomaly(deg)": 1.2536624071134421,
        "RAAN(deg)": 339.9989624598451,
        "Satellite Name": "Starlink Shell 1 1496",
        "Satellite Number": 1496,
        "Semi-Major Axis(m)": 6931778.249405717,
        "Time(s)": 20
    },
    {
        "Altitude(m)": 554057.37677901,
        "Argument of Periapsis(deg)": 0.0010457354385337105,
        "Eccentricity": 0.0,
        "Inclination(deg)": 53.0,
        "Latitude(deg)": 1.4323553206728585,
        "Longitude(deg)": -119.02237675406015,
        "Mean Anomaly(deg)": 1.8804936106701375,
        "RAAN(deg)": 339.9984436897676,
        "Satellite Name": "Starlink Shell 1 1496",
        "Satellite Number": 1496,
        "Semi-Major Axis(m)": 6931778.249405717,
        "Time(s)": 30
    },
    {
        "Altitude(m)": 554001.3899381526,
        "Argument of Periapsis(deg)": 0.0013943139180449475,
        "Eccentricity": 0.0,
        "Inclination(deg)": 53.0,
        "Latitude(deg)": 1.9361998771729982,
        "Longitude(deg)": -118.68665894026617,
        "Mean Anomaly(deg)": 2.5073248142268336,
        "RAAN(deg)": 339.99792491969015,
        "Satellite Name": "Starlink Shell 1 1496",
        "Satellite Number": 1496,
        "Semi-Major Axis(m)": 6931778.249405717,
        "Time(s)": 40
    },
    {
        "Altitude(m)": 553948.2216450069,
        "Argument of Periapsis(deg)": 0.0017428923975561844,
        "Eccentricity": 0.0,
        "Inclination(deg)": 53.0,
        "Latitude(deg)": 2.439965897147464,
        "Longitude(deg)": -118.3507120487629,
        "Mean Anomaly(deg)": 3.13415601778358,
        "RAAN(deg)": 339.9974061496127,
        "Satellite Name": "Starlink Shell 1 1496",
        "Satellite Number": 1496,
        "Semi-Major Axis(m)": 6931778.249405717,
        "Time(s)": 50
    },
    {
        "Altitude(m)": 553897.8740045744,
        "Argument of Periapsis(deg)": 0.002091470877067421,
        "Eccentricity": 0.0,
        "Inclination(deg)": 53.0,
        "Latitude(deg)": 2.943630360931229,
        "Longitude(deg)": -118.01447829309043,
        "Mean Anomaly(deg)": 3.7609872213403266,
        "RAAN(deg)": 339.99688737953517,
        "Satellite Name": "Starlink Shell 1 1496",
        "Satellite Number": 1496,
        "Semi-Major Axis(m)": 6931778.249405717,
        "Time(s)": 60
    },
    {
        "Altitude(m)": 553850.347768682,
        "Argument of Periapsis(deg)": 0.0024400493565786582,
        "Eccentricity": 0.0,
        "Inclination(deg)": 53.0,
        "Latitude(deg)": 3.447170188290339,
        "Longitude(deg)": -117.6778992544728,
        "Mean Anomaly(deg)": 4.387818424896971,
        "RAAN(deg)": 339.9963686094577,
        "Satellite Name": "Starlink Shell 1 1496",
        "Satellite Number": 1496,
        "Semi-Major Axis(m)": 6931778.249405717,
        "Time(s)": 70
    },
    {
        "Altitude(m)": 553805.6423383655,
        "Argument of Periapsis(deg)": 0.002788627836089895,
        "Eccentricity": 0.0,
        "Inclination(deg)": 53.0,
        "Latitude(deg)": 3.9505622265732403,
        "Longitude(deg)": -117.34091686504021,
        "Mean Anomaly(deg)": 5.014649628453718,
        "RAAN(deg)": 339.99584983938024,
        "Satellite Name": "Starlink Shell 1 1496",
        "Satellite Number": 1496,
        "Semi-Major Axis(m)": 6931778.249405717,
        "Time(s)": 80
    },
    {
        "Altitude(m)": 553763.7557669557,
        "Argument of Periapsis(deg)": 0.0031372063156011316,
        "Eccentricity": 0.0,
        "Inclination(deg)": 53.0,
        "Latitude(deg)": 4.453783238791845,
        "Longitude(deg)": -117.00347287812984,
        "Mean Anomaly(deg)": 5.641480832010414,
        "RAAN(deg)": 339.9953310693028,
        "Satellite Name": "Starlink Shell 1 1496",
        "Satellite Number": 1496,
        "Semi-Major Axis(m)": 6931778.249405717,
        "Time(s)": 90
    },
    {
        "Altitude(m)": 553724.6847638132,
        "Argument of Periapsis(deg)": 0.0034857847951123688,
        "Eccentricity": 0.0,
        "Inclination(deg)": 53.0,
        "Latitude(deg)": 4.9568098916233385,
        "Longitude(deg)": -116.66550833853007,
        "Mean Anomaly(deg)": 6.26831203556716,
        "RAAN(deg)": 339.99481229922526,
        "Satellite Name": "Starlink Shell 1 1496",
        "Satellite Number": 1496,
        "Semi-Major Axis(m)": 6931778.249405717,
        "Time(s)": 100
    },
    {
        "Altitude(m)": 553688.424698732,
        "Argument of Periapsis(deg)": 0.003834363274623606,
        "Eccentricity": 0.0,
        "Inclination(deg)": 53.0,
        "Latitude(deg)": 5.459618743322274,
        "Longitude(deg)": -116.32696456553754,
        "Mean Anomaly(deg)": 6.8951432391239065,
        "RAAN(deg)": 339.99429352914785,
        "Satellite Name": "Starlink Shell 1 1496",
        "Satellite Number": 1496,
        "Semi-Major Axis(m)": 6931778.249405717,
        "Time(s)": 110
    },
    {
        "Altitude(m)": 553654.9696070276,
        "Argument of Periapsis(deg)": 0.004182941754134842,
        "Eccentricity": 0.0,
        "Inclination(deg)": 53.0,
        "Latitude(deg)": 5.962186231528455,
        "Longitude(deg)": -115.98778262307258,
        "Mean Anomaly(deg)": 7.52197444268055,
        "RAAN(deg)": 339.9937747590704,
        "Satellite Name": "Starlink Shell 1 1496",
        "Satellite Number": 1496,
        "Semi-Major Axis(m)": 6931778.249405717,
        "Time(s)": 120
    },
    {
        "Altitude(m)": 553624.312195289,
        "Argument of Periapsis(deg)": 0.004531520233646079,
        "Eccentricity": 0.0,
        "Inclination(deg)": 53.0,
        "Latitude(deg)": 6.464488660960948,
        "Longitude(deg)": -115.64790278972126,
        "Mean Anomaly(deg)": 8.148805646237298,
        "RAAN(deg)": 339.99325598899287,
        "Satellite Name": "Starlink Shell 1 1496",
        "Satellite Number": 1496,
        "Semi-Major Axis(m)": 6931778.249405717,
        "Time(s)": 130
    },
    {
        "Altitude(m)": 553596.4438477791,
        "Argument of Periapsis(deg)": 0.0048800987131573164,
        "Eccentricity": 0.0,
        "Inclination(deg)": 53.0,
        "Latitude(deg)": 6.966502190987465,
        "Longitude(deg)": -115.30726554157286,
        "Mean Anomaly(deg)": 8.775636849793994,
        "RAAN(deg)": 339.9927372189154,
        "Satellite Name": "Starlink Shell 1 1496",
        "Satellite Number": 1496,
        "Semi-Major Axis(m)": 6931778.249405717,
        "Time(s)": 140
    },
    {
        "Altitude(m)": 553571.3546334943,
        "Argument of Periapsis(deg)": 0.005228677192668553,
        "Eccentricity": 0.0,
        "Inclination(deg)": 53.0,
        "Latitude(deg)": 7.468202823055144,
        "Longitude(deg)": -114.96581102210045,
        "Mean Anomaly(deg)": 9.40246805335074,
        "RAAN(deg)": 339.9922184488379,
        "Satellite Name": "Starlink Shell 1 1496",
        "Satellite Number": 1496,
        "Semi-Major Axis(m)": 6931778.249405717,
        "Time(s)": 150
    },
    {
        "Altitude(m)": 553549.0333138923,
        "Argument of Periapsis(deg)": 0.00557725567217979,
        "Eccentricity": 0.0,
        "Inclination(deg)": 53.0,
        "Latitude(deg)": 7.969566387972062,
        "Longitude(deg)": -114.62347851195568,
        "Mean Anomaly(deg)": 10.029299256907436,
        "RAAN(deg)": 339.9916996787605,
        "Satellite Name": "Starlink Shell 1 1496",
        "Satellite Number": 1496,
        "Semi-Major Axis(m)": 6931778.249405717,
        "Time(s)": 160
    },
    {
        "Altitude(m)": 553529.4673512492,
        "Argument of Periapsis(deg)": 0.0059258341516910265,
        "Eccentricity": 0.0,
        "Inclination(deg)": 53.0,
        "Latitude(deg)": 8.470568533029402,
        "Longitude(deg)": -114.2802074115456,
        "Mean Anomaly(deg)": 10.65613046046413,
        "RAAN(deg)": 339.991180908683,
        "Satellite Name": "Starlink Shell 1 1496",
        "Satellite Number": 1496,
        "Semi-Major Axis(m)": 6931778.249405717,
        "Time(s)": 170
    },
    {
        "Altitude(m)": 553512.6429176845,
        "Argument of Periapsis(deg)": 0.006274412631202263,
        "Eccentricity": 0.0,
        "Inclination(deg)": 53.0,
        "Latitude(deg)": 8.971184708948941,
        "Longitude(deg)": -113.93593671064586,
        "Mean Anomaly(deg)": 11.282961664020878,
        "RAAN(deg)": 339.9906621386055,
        "Satellite Name": "Starlink Shell 1 1496",
        "Satellite Number": 1496,
        "Semi-Major Axis(m)": 6931778.249405717,
        "Time(s)": 180
    }
]